[{"OBJECT_NAME":"STARLINK-30218","OBJECT_ID":"2023-119C","EPOCH":"2026-03-09T22:00:01.999584","MEAN_MOTION":15.18457139,"ECCENTRICITY":0.00017218,"INCLINATION":43.0002,"RA_OF_ASC_NODE":79.8846,"ARG_OF_PERICENTER":291.5867,"MEAN_ANOMALY":147.4307,"EPHEMERIS_TYPE":0,"CLASSIFICATION_TYPE":"U","NORAD_CAT_ID":57604,"ELEMENT_SET_NO":999,"REV_AT_EPOCH":567,"BSTAR":0.057976743,"MEAN_MOTION_DOT":0.01319901,"MEAN_MOTION_DDOT":0},{"OBJECT_NAME":"ZIYUAN 3-04 (ZY 3-04)","OBJECT_ID":"2025-300A","EPOCH":"2026-03-09T21:46:53.524416","MEAN_MOTION":15.21435869,"ECCENTRICITY":0.00046089,"INCLINATION":97.4787,"RA_OF_ASC_NODE":147.5221,"ARG_OF_PERICENTER":299.6571,"MEAN_ANOMALY":60.4205,"EPHEMERIS_TYPE":0,"CLASSIFICATION_TYPE":"U","NORAD_CAT_ID":67131,"ELEMENT_SET_NO":999,"REV_AT_EPOCH":1274,"BSTAR":0.00028410959,"MEAN_MOTION_DOT":6.313e-5,"MEAN_MOTION_DDOT":0}]
